JAISAT-1                
1 44419U 19038F   24038.92014911  .00077539  00000+0  13366-2 0  9998
2 44419  97.6845  36.7450 0011352 155.4853 204.6940 15.50709503254787
DUCHIFAT-3              
1 44854U 19089C   24038.54315155  .00015353  00000+0  88482-3 0  9997
2 44854  36.9594 119.2368 0007893 104.8067 255.3554 15.11735948228393
TIANYAN 01              
1 44881U 19093C   24038.86269522  .00001582  00000+0  19965-3 0  9992
2 44881  97.8403 118.1514 0015267  33.5864 326.6314 14.83246165223720
RS-44 & BREEZE-KM R/B   
1 44909U 19096E   24038.86181907  .00000015  00000+0  19154-4 0  9997
2 44909  82.5225 191.3498 0217303 356.2052   3.7391 12.79726375192303
BY70-2                  
1 45857U 20042B   24038.88758932  .00057431  00000+0  38871-2 0  9992
2 45857  97.9185 126.8604 0007737 292.5464  67.4943 15.06249627194800
SALSAT                  
1 46495U 20068K   24038.83205956  .00009210  00000+0  55668-3 0  9993
2 46495  97.8001 355.2221 0015732  43.9006 316.3469 15.10801146184614
RADFXSAT-2 (AO-109)     
1 47311U 21002C   24038.92846078  .00127144  00000+0  12312-2 0  9991
2 47311  60.6696 218.4798 0025046  71.8163 288.5667 15.65288098170803
UVSQ-SAT                
1 47438U 21006AB  24038.72430532  .00034104  00000+0  98618-3 0  9994
2 47438  97.3501  98.6408 0007166 332.2835  27.8025 15.35524925168644
LEDSAT                  
1 49069U 21073D   24038.76953321  .00015090  00000+0  69981-3 0  9994
2 49069  97.4550 111.1825 0021716  24.7468 335.4804 15.19939710136616
XW-3 (CAS-9)            
1 50466U 21131B   24038.86630040  .00000961  00000+0  32328-3 0  9999
2 50466  98.5352 124.5605 0004874 145.5967 214.5537 14.39344656111250
TEVEL-3                 
1 50988U 22002E   24038.87485990  .00057143  00000+0  13736-2 0  9994
2 50988  97.4014 111.1412 0005371 113.9622 246.2188 15.41115292114848
TEVEL-8                 
1 50989U 22002F   24038.84084244  .00056553  00000+0  13644-2 0  9991
2 50989  97.4031 111.1900 0005320 112.3350 247.8461 15.41007323114830
TEVEL-5                 
1 50998U 22002Q   24038.89723439  .00062435  00000+0  14091-2 0  9995
2 50998  97.4006 111.9582 0005905 106.2168 253.9730 15.42985665114904
TEVEL-6                 
1 50999U 22002R   24038.89741150  .00061579  00000+0  13916-2 0  9999
2 50999  97.4004 111.9439 0005895 106.2871 253.9025 15.42950440114903
TEVEL-1                 
1 51013U 22002AF  24038.89437236  .00056059  00000+0  13519-2 0  9990
2 51013  97.4005 111.0557 0005177 113.4208 246.7583 15.41023837114843
TEVEL-7                 
1 51062U 22002CG  24038.83627946  .00056563  00000+0  13616-2 0  9995
2 51062  97.4025 111.1560 0005299 112.8457 247.3349 15.41075419114837
TEVEL-4                 
1 51063U 22002CH  24038.92145166  .00057477  00000+0  13905-2 0  9991
2 51063  97.4024 111.1867 0005353 112.2848 247.8966 15.40920034114848
TEVEL-2                 
1 51069U 22002CP  24038.87495014  .00057587  00000+0  13832-2 0  9992
2 51069  97.4012 111.1080 0005330 113.7866 246.3940 15.41136742114841
GREENCUBE               
1 53106U 22080B   24036.98324556 -.00000003  00000+0  00000+0 0  9996
2 53106  70.1299 238.4559 0008315 132.7634 227.3726  6.42557805 36778
CYCLOPS (RS29S)         
1 53373U 22096D   24038.73250592  .00365847  00000+0  17284-2 0  9996
2 53373  97.3908 317.4037 0007443 103.6592 256.5506 15.82057849 84244
MONITOR-1 (RS32S)       
1 53374U 22096E   24038.86902272  .00218328  00000+0  15120-2 0  9998
2 53374  97.3867 316.4229 0006514  92.7013 267.4997 15.73828885 84202
KUZBASS-300 (RS34S)     
1 53375U 22096F   24038.91236257  .00093197  00000+0  12293-2 0  9991
2 53375  97.3977 314.2739 0004425  80.5116 279.6640 15.58078727 84053
UTMN (RS23S)            
1 53376U 22096G   24038.93521133  .00106665  00000+0  12648-2 0  9993
2 53376  97.3956 314.8166 0004936  84.4881 275.6939 15.60849047 84095
MIET-AIS (RS28S)        
1 53377U 22096H   24038.85913454  .00077927  00000+0  11491-2 0  9999
2 53377  97.3996 313.7798 0004044  81.5595 278.6117 15.55118251 84012
KAI-1 (RS26S)           
1 53378U 22096J   24038.92583596  .00051415  00000+0  92196-3 0  9994
2 53378  97.4042 312.7039 0003868  78.6028 281.5657 15.49762351 83946
ISOI (RS19S)            
1 53381U 22096M   24038.96661422  .00082272  00000+0  11492-2 0  9991
2 53381  97.4015 314.5243 0002456  84.7630 275.3905 15.56582451 84077
CUBESX-HSE-2 (RS21S)    
1 53383U 22096P   24038.90565915  .00101310  00000+0  12237-2 0  9990
2 53383  97.3964 315.0334 0002377  89.5394 270.6136 15.60392907 84108
SIREN (RS30S)           
1 53384U 22096Q   24038.86037102  .00064853  00000+0  10338-2 0  9998
2 53384  97.4009 313.6471 0001456  76.1751 283.9664 15.53025940 84006
GEOSCAN-EDELVEIS (RS20S)
1 53385U 22096R   24038.78282308  .00677500  19651-3  17209-2 0  9999
2 53385  97.3850 319.1074 0007304 127.3477 232.8465 15.95426966 84395
CAS-5A (FO-118)         
1 54684U 22167C   24038.91213158  .00024272  00000+0  10524-2 0  9992
2 54684  97.5858 181.6298 0011083 240.4244 119.5888 15.22305690 64439
STRATOSAT-TK 1 (RS52S)  
1 57167U 23091B   24038.88116275  .00014808  00000+0  96144-3 0  9993
2 57167  97.6339  92.6282 0016011 200.9701 159.0872 15.08043985 33890
UMKA 1 (RS40S)          
1 57172U 23091G   24038.88945927  .00007344  00000+0  51062-3 0  9990
2 57172  97.6336  92.3088 0016877 201.7613 158.2899 15.05689887 33877
CUBESX-HSE 3 (RS42S)    
1 57178U 23091N   24038.86299449  .00008759  00000+0  59760-3 0  9999
2 57178  97.6373  92.4531 0017641 195.1434 164.9267 15.06323865 33870
MONITOR-4 (RS57S)       
1 57182U 23091S   24038.88516495  .00008982  00000+0  61716-3 0  9991
2 57182  97.6362  92.3897 0017959 197.2198 162.8422 15.06047838 33872
MONITOR-2 (RS39S)       
1 57184U 23091U   24038.87459890  .00005880  00000+0  40598-3 0  9996
2 57184  97.6371  92.5709 0014298 188.4059 171.6931 15.06070440 33888
SVYATOBOR 1 (RS60S)     
1 57187U 23091X   24038.86739589  .00007522  00000+0  50588-3 0  9999
2 57187  97.6370  92.7375 0013957 186.0452 174.0609 15.06957556 33895
VIZARD-METEO (RS38S)    
1 57189U 23091Z   24038.91821929  .00008891  00000+0  58353-3 0  9995
2 57189  97.6355  92.9558 0012992 184.6168 175.4942 15.07817179 33916
NANOZOND 1 (RS49S)      
1 57190U 23091AA  24038.88374370  .00013578  00000+0  85685-3 0  9992
2 57190  97.6339  93.0774 0011371 189.7823 170.3186 15.09162345 33921
POLYTECH-UNIVERSE 3 (R*)
1 57191U 23091AB  24038.87007181  .00005829  00000+0  40336-3 0  9999
2 57191  97.6336  92.3289 0019347 207.6139 152.4062 15.05924235 33871
UTMN 2 (RS27S)          
1 57203U 23091AP  24038.87650388  .00008918  00000+0  58978-3 0  9999
2 57203  97.6363  92.8556 0013305 184.5148 175.5962 15.07532678 33905
ARCCUBE 1 (RS25S)       
1 57205U 23091AR  24038.86046354  .00014670  00000+0  91354-3 0  9999
2 57205  97.6313  93.0551 0011561 191.2230 168.8742 15.09628786 33920
KUZGTU 1 (RS47S)        
1 57217U 23091AV  24038.86309594  .00008490  00000+0  58038-3 0  9995
2 57217  97.6349  92.3812 0017496 196.4668 163.5993 15.06262823 33876
HADES-D (SO-121)        
1 58567U 23174CY  24038.71373526  .00032382  00000+0  16022-2 0  9999
2 58567  97.4717 115.2635 0014343 328.7348  31.3032 15.17647960 13924
CUTE-1 (CO-55)          
1 27844U 03031E   24038.74415061  .00000657  00000+0  31041-3 0  9996
2 27844  98.6795  47.5958 0010146 157.4146 202.7481 14.23067474 69231
CUBESAT XI-IV (CO-57)   
1 27848U 03031J   24038.83936307  .00000539  00000+0  26077-3 0  9993
2 27848  98.6827  48.0036 0009762 172.2966 187.8364 14.22537600 69001
CUBESAT XI-V            
1 28895U 05043F   24038.92183307  .00002940  00000+0  53416-3 0  9990
2 28895  98.1796 174.8145 0016805  51.5772 308.6938 14.66849953975352
CUTE-1.7+APD II (CO-65) 
1 32785U 08021C   24038.90382892  .00007527  00000+0  69534-3 0  9994
2 32785  97.7379   5.6433 0012740  46.5859 313.6420 14.94822185856070
AAUSAT-II               
1 32788U 08021F   24038.92013941  .00020963  00000+0  12547-2 0  9995
2 32788  97.5838  19.5301 0003722 264.6085  95.4720 15.11043457858610
SEEDS II (CO-66)        
1 32791U 08021J   24038.64823329  .00011578  00000+0  91744-3 0  9996
2 32791  97.6810  10.9619 0008186  16.9661 343.1835 15.00694083856926
SWISSCUBE               
1 35932U 09051B   24038.91104087  .00001888  00000+0  41668-3 0  9996
2 35932  98.4906 279.5388 0007685   9.4192 350.7149 14.58518004763565
BEESAT-1                
1 35933U 09051C   24038.62082583  .00001649  00000+0  36678-3 0  9991
2 35933  98.4834 280.3137 0006208  24.3617 335.7873 14.58323690763591
ITUPSAT1                
1 35935U 09051E   24038.61249349  .00001520  00000+0  34635-3 0  9996
2 35935  98.4933 280.1541 0008546  27.1271 333.0372 14.57319181763240
TISAT 1                 
1 36799U 10035E   24038.42673733  .00010216  00000+0  83051-3 0  9994
2 36799  98.1090 282.3632 0006822 290.4880  69.5609 14.99771206737444
M-CUBED & EXP-1 PRIME   
1 37855U 11061F   24038.86471679  .00067817  00000+0  12072-2 0  9994
2 37855 101.6866 142.5328 0079257  27.3173 333.2194 15.46398610672717
AEROCUBE 4.5A           
1 38767U 12048K   24038.65103048  .00014978  00000+0  92072-3 0  9991
2 38767  64.6632  12.3864 0103763  66.3934 294.8038 15.05809478240787
AEROCUBE 4.5B           
1 38768U 12048L   24038.89735244  .00027096  00000+0  12557-2 0  9991
2 38768  64.6618 305.3335 0083727  55.9627 304.9411 15.16888435241613
STRAND-1                
1 39090U 13009E   24038.76819143  .00000683  00000+0  25016-3 0  9993
2 39090  98.3811 230.6391 0007834 283.9882  76.0433 14.35880477573521
BRITE-AUSTRIA           
1 39091U 13009F   24038.86209529  .00000450  00000+0  17074-3 0  9993
2 39091  98.3848 229.9895 0009322 291.1708  68.8481 14.35675766573563
